vendor_key,vendor_name,vertical,address,city,state,zip
1,Stripe,Data Provider,3088 Main St Suite 548,Chicago,IL,60601
2,Plaid,Banking Infrastructure,3644 Main St Suite 827,Chicago,IL,60601
3,Dwolla,Data Provider,7346 Main St Suite 222,San Francisco,CA,94102
4,Marqeta,Marketing Platform,7914 Main St Suite 617,Los Angeles,CA,90001
5,Galileo Financial,Technology Services,2346 Main St Suite 387,New York,NY,10001
6,Synapse,Data Provider,1513 Main St Suite 900,New York,NY,10001
7,Unit,Marketing Platform,9562 Main St Suite 904,Boston,MA,02101
8,Alloy,Data Provider,6728 Main St Suite 333,Boston,MA,02101
9,Socure,Marketing Platform,4596 Main St Suite 831,Los Angeles,CA,90001
10,Onfido,Security Services,9520 Main St Suite 906,Boston,MA,02101
11,Persona,Data Provider,6399 Main St Suite 127,Los Angeles,CA,90001
12,Trulioo,Technology Services,3702 Main St Suite 515,Denver,CO,80201
13,Veriff,Security Services,6599 Main St Suite 632,Denver,CO,80201
14,Segment,Banking Infrastructure,6480 Main St Suite 965,Atlanta,GA,30301
15,Amplitude,Technology Services,9178 Main St Suite 794,Miami,FL,33101
16,Mixpanel,Technology Services,8164 Main St Suite 822,Seattle,WA,98101
17,Google Analytics,Marketing Platform,1431 Main St Suite 655,New York,NY,10001
18,Braze,Compliance Services,3576 Main St Suite 168,Seattle,WA,98101
19,Iterable,Compliance Services,2775 Main St Suite 398,Chicago,IL,60601
20,AWS,Compliance Services,6002 Main St Suite 270,New York,NY,10001
21,Google Cloud,Payment Processing,4667 Main St Suite 335,Chicago,IL,60601
22,Cloudflare,Data Provider,1516 Main St Suite 713,Chicago,IL,60601
23,MongoDB,Technology Services,9909 Main St Suite 349,Boston,MA,02101
24,Databricks,Compliance Services,5442 Main St Suite 328,Miami,FL,33101
25,Twilio,Security Services,8705 Main St Suite 232,Seattle,WA,98101
26,SendGrid,Marketing Platform,5247 Main St Suite 530,Seattle,WA,98101
27,Mailgun,Marketing Platform,6631 Main St Suite 908,Atlanta,GA,30301
28,Customer.io,Banking Infrastructure,3247 Main St Suite 720,San Francisco,CA,94102
29,Salesforce,Data Provider,346 Main St Suite 816,Austin,TX,78701
30,HubSpot,Data Provider,6799 Main St Suite 793,New York,NY,10001
31,Zendesk,Data Provider,5490 Main St Suite 848,Atlanta,GA,30301
32,Intercom,Security Services,2709 Main St Suite 737,Austin,TX,78701
33,Front,Banking Infrastructure,430 Main St Suite 854,Austin,TX,78701
34,Experian,Data Provider,3135 Main St Suite 549,San Francisco,CA,94102
35,TransUnion,Security Services,9014 Main St Suite 360,Boston,MA,02101
36,Equifax,Technology Services,7360 Main St Suite 391,Atlanta,GA,30301
37,ChexSystems,Security Services,5929 Main St Suite 864,Seattle,WA,98101
38,Visa,Compliance Services,4643 Main St Suite 744,Miami,FL,33101
39,Mastercard,Payment Processing,7648 Main St Suite 180,Seattle,WA,98101
40,American Express,Payment Processing,9804 Main St Suite 452,Atlanta,GA,30301
41,Facebook Ads,Banking Infrastructure,2223 Main St Suite 571,Chicago,IL,60601
42,Google Ads,Data Provider,8381 Main St Suite 350,Seattle,WA,98101
43,TikTok Ads,Payment Processing,5399 Main St Suite 986,Denver,CO,80201
44,Snapchat Ads,Data Provider,1963 Main St Suite 532,Los Angeles,CA,90001
45,Looker,Marketing Platform,5446 Main St Suite 405,Chicago,IL,60601
46,Tableau,Data Provider,3664 Main St Suite 520,Seattle,WA,98101
47,Mode Analytics,Marketing Platform,1963 Main St Suite 948,Atlanta,GA,30301
48,Retool,Compliance Services,8056 Main St Suite 944,Los Angeles,CA,90001
49,Partner Services 49,Technology Services,9129 Main St Suite 389,Denver,CO,80201
50,Partner Services 50,Marketing Platform,2224 Main St Suite 172,New York,NY,10001
51,Partner Services 51,Security Services,8933 Main St Suite 378,Atlanta,GA,30301
52,Partner Services 52,Banking Infrastructure,2479 Main St Suite 152,Miami,FL,33101
53,Partner Services 53,Marketing Platform,3455 Main St Suite 218,Seattle,WA,98101
54,Partner Services 54,Data Provider,6713 Main St Suite 562,Seattle,WA,98101
55,Partner Services 55,Payment Processing,528 Main St Suite 980,Miami,FL,33101
56,Partner Services 56,Banking Infrastructure,6920 Main St Suite 309,Boston,MA,02101
57,Partner Services 57,Payment Processing,9564 Main St Suite 375,Boston,MA,02101
58,Partner Services 58,Security Services,5716 Main St Suite 955,Austin,TX,78701
59,Partner Services 59,Marketing Platform,7339 Main St Suite 813,New York,NY,10001
60,Partner Services 60,Banking Infrastructure,9235 Main St Suite 415,Atlanta,GA,30301
61,Partner Services 61,Data Provider,3971 Main St Suite 131,Los Angeles,CA,90001
62,Partner Services 62,Compliance Services,4222 Main St Suite 639,Austin,TX,78701
63,Partner Services 63,Marketing Platform,7741 Main St Suite 107,Atlanta,GA,30301
64,Partner Services 64,Technology Services,1551 Main St Suite 768,Austin,TX,78701
65,Partner Services 65,Security Services,1502 Main St Suite 945,Seattle,WA,98101
66,Partner Services 66,Technology Services,9245 Main St Suite 428,New York,NY,10001
67,Partner Services 67,Security Services,473 Main St Suite 648,Boston,MA,02101
68,Partner Services 68,Technology Services,4167 Main St Suite 587,Boston,MA,02101
69,Partner Services 69,Marketing Platform,8014 Main St Suite 445,Miami,FL,33101
70,Partner Services 70,Technology Services,1697 Main St Suite 873,Los Angeles,CA,90001
71,Partner Services 71,Security Services,3415 Main St Suite 416,Miami,FL,33101
72,Partner Services 72,Payment Processing,6926 Main St Suite 989,Denver,CO,80201
73,Partner Services 73,Security Services,6228 Main St Suite 980,Seattle,WA,98101
74,Partner Services 74,Payment Processing,7878 Main St Suite 528,New York,NY,10001
75,Partner Services 75,Banking Infrastructure,5252 Main St Suite 682,Atlanta,GA,30301
76,Partner Services 76,Compliance Services,106 Main St Suite 404,Miami,FL,33101
77,Partner Services 77,Technology Services,3454 Main St Suite 143,Denver,CO,80201
78,Partner Services 78,Technology Services,5716 Main St Suite 296,San Francisco,CA,94102
79,Partner Services 79,Compliance Services,1448 Main St Suite 930,Miami,FL,33101
80,Partner Services 80,Banking Infrastructure,7340 Main St Suite 284,Atlanta,GA,30301
81,Partner Services 81,Banking Infrastructure,5299 Main St Suite 772,Denver,CO,80201
82,Partner Services 82,Payment Processing,1674 Main St Suite 281,Chicago,IL,60601
83,Partner Services 83,Banking Infrastructure,2948 Main St Suite 911,San Francisco,CA,94102
84,Partner Services 84,Technology Services,7833 Main St Suite 290,Austin,TX,78701
85,Partner Services 85,Security Services,3502 Main St Suite 356,Boston,MA,02101
86,Partner Services 86,Compliance Services,1717 Main St Suite 645,Chicago,IL,60601
87,Partner Services 87,Marketing Platform,2358 Main St Suite 319,Austin,TX,78701
88,Partner Services 88,Marketing Platform,5277 Main St Suite 754,Los Angeles,CA,90001
89,Partner Services 89,Technology Services,368 Main St Suite 683,Los Angeles,CA,90001
90,Partner Services 90,Compliance Services,2822 Main St Suite 501,Austin,TX,78701
91,Partner Services 91,Banking Infrastructure,8610 Main St Suite 584,Denver,CO,80201
92,Partner Services 92,Payment Processing,3987 Main St Suite 983,Austin,TX,78701
93,Partner Services 93,Compliance Services,8136 Main St Suite 405,New York,NY,10001
94,Partner Services 94,Marketing Platform,4402 Main St Suite 526,Seattle,WA,98101
95,Partner Services 95,Data Provider,1029 Main St Suite 391,Atlanta,GA,30301
96,Partner Services 96,Technology Services,1468 Main St Suite 312,Miami,FL,33101
97,Partner Services 97,Marketing Platform,2866 Main St Suite 710,Austin,TX,78701
98,Partner Services 98,Compliance Services,8782 Main St Suite 468,Atlanta,GA,30301
99,Partner Services 99,Security Services,2410 Main St Suite 581,Austin,TX,78701
100,Partner Services 100,Compliance Services,9809 Main St Suite 792,Chicago,IL,60601
101,Partner Services 101,Payment Processing,1407 Main St Suite 947,Boston,MA,02101
102,Partner Services 102,Payment Processing,5409 Main St Suite 477,Atlanta,GA,30301
103,Partner Services 103,Banking Infrastructure,6214 Main St Suite 462,Seattle,WA,98101
104,Partner Services 104,Security Services,1605 Main St Suite 752,Austin,TX,78701
105,Partner Services 105,Marketing Platform,9317 Main St Suite 523,Austin,TX,78701
106,Partner Services 106,Marketing Platform,352 Main St Suite 470,New York,NY,10001
107,Partner Services 107,Marketing Platform,2259 Main St Suite 860,San Francisco,CA,94102
108,Partner Services 108,Marketing Platform,8618 Main St Suite 392,Atlanta,GA,30301
109,Partner Services 109,Compliance Services,9350 Main St Suite 725,Miami,FL,33101
110,Partner Services 110,Technology Services,5507 Main St Suite 382,Denver,CO,80201
111,Partner Services 111,Marketing Platform,2385 Main St Suite 419,San Francisco,CA,94102
112,Partner Services 112,Payment Processing,1913 Main St Suite 353,Chicago,IL,60601
113,Partner Services 113,Technology Services,8825 Main St Suite 205,Miami,FL,33101
114,Partner Services 114,Data Provider,7933 Main St Suite 562,Seattle,WA,98101
115,Partner Services 115,Security Services,9547 Main St Suite 595,Boston,MA,02101
116,Partner Services 116,Technology Services,796 Main St Suite 738,Los Angeles,CA,90001
117,Partner Services 117,Payment Processing,6179 Main St Suite 863,Seattle,WA,98101
118,Partner Services 118,Data Provider,702 Main St Suite 616,Boston,MA,02101
119,Partner Services 119,Security Services,2119 Main St Suite 533,Los Angeles,CA,90001
120,Partner Services 120,Payment Processing,3261 Main St Suite 352,Atlanta,GA,30301
121,Partner Services 121,Technology Services,6057 Main St Suite 686,Chicago,IL,60601
122,Partner Services 122,Banking Infrastructure,8865 Main St Suite 464,Denver,CO,80201
123,Partner Services 123,Security Services,8505 Main St Suite 839,Atlanta,GA,30301
124,Partner Services 124,Compliance Services,3411 Main St Suite 837,New York,NY,10001
125,Partner Services 125,Banking Infrastructure,9203 Main St Suite 686,Boston,MA,02101
126,Partner Services 126,Compliance Services,5256 Main St Suite 660,Denver,CO,80201
127,Partner Services 127,Compliance Services,8412 Main St Suite 464,Los Angeles,CA,90001
128,Partner Services 128,Banking Infrastructure,1282 Main St Suite 535,Los Angeles,CA,90001
129,Partner Services 129,Marketing Platform,1649 Main St Suite 181,Chicago,IL,60601
130,Partner Services 130,Banking Infrastructure,8741 Main St Suite 461,Los Angeles,CA,90001
131,Partner Services 131,Marketing Platform,2311 Main St Suite 426,Austin,TX,78701
132,Partner Services 132,Technology Services,2235 Main St Suite 720,San Francisco,CA,94102
133,Partner Services 133,Payment Processing,6388 Main St Suite 875,San Francisco,CA,94102
134,Partner Services 134,Technology Services,4637 Main St Suite 842,Miami,FL,33101
135,Partner Services 135,Banking Infrastructure,5725 Main St Suite 798,Austin,TX,78701
136,Partner Services 136,Payment Processing,6354 Main St Suite 598,Miami,FL,33101
137,Partner Services 137,Compliance Services,6049 Main St Suite 367,Denver,CO,80201
138,Partner Services 138,Security Services,8363 Main St Suite 507,Boston,MA,02101
139,Partner Services 139,Security Services,7952 Main St Suite 105,San Francisco,CA,94102
140,Partner Services 140,Data Provider,9329 Main St Suite 153,Seattle,WA,98101
141,Partner Services 141,Marketing Platform,3405 Main St Suite 802,Austin,TX,78701
142,Partner Services 142,Technology Services,1931 Main St Suite 464,San Francisco,CA,94102
143,Partner Services 143,Banking Infrastructure,8802 Main St Suite 325,Atlanta,GA,30301
144,Partner Services 144,Compliance Services,3597 Main St Suite 348,Denver,CO,80201
145,Partner Services 145,Compliance Services,6131 Main St Suite 542,Los Angeles,CA,90001
146,Partner Services 146,Banking Infrastructure,9273 Main St Suite 817,Los Angeles,CA,90001
147,Partner Services 147,Marketing Platform,5826 Main St Suite 426,Austin,TX,78701
148,Partner Services 148,Payment Processing,2746 Main St Suite 206,Boston,MA,02101
149,Partner Services 149,Compliance Services,6797 Main St Suite 663,Denver,CO,80201
150,Partner Services 150,Payment Processing,1943 Main St Suite 276,Seattle,WA,98101
151,Partner Services 151,Payment Processing,8777 Main St Suite 432,Chicago,IL,60601
152,Partner Services 152,Security Services,8100 Main St Suite 397,New York,NY,10001
153,Partner Services 153,Payment Processing,4279 Main St Suite 849,San Francisco,CA,94102
154,Partner Services 154,Compliance Services,8750 Main St Suite 911,Seattle,WA,98101
155,Partner Services 155,Marketing Platform,5405 Main St Suite 342,Seattle,WA,98101
156,Partner Services 156,Marketing Platform,1523 Main St Suite 812,San Francisco,CA,94102
157,Partner Services 157,Compliance Services,5199 Main St Suite 331,Austin,TX,78701
158,Partner Services 158,Data Provider,3818 Main St Suite 147,Austin,TX,78701
159,Partner Services 159,Data Provider,4620 Main St Suite 372,Chicago,IL,60601
160,Partner Services 160,Payment Processing,8851 Main St Suite 333,Seattle,WA,98101
161,Partner Services 161,Security Services,8333 Main St Suite 190,Chicago,IL,60601
162,Partner Services 162,Marketing Platform,301 Main St Suite 512,Chicago,IL,60601
163,Partner Services 163,Security Services,2183 Main St Suite 995,Chicago,IL,60601
164,Partner Services 164,Marketing Platform,5357 Main St Suite 952,Atlanta,GA,30301
165,Partner Services 165,Marketing Platform,3614 Main St Suite 460,Chicago,IL,60601
166,Partner Services 166,Payment Processing,298 Main St Suite 948,Atlanta,GA,30301
167,Partner Services 167,Marketing Platform,3637 Main St Suite 854,Los Angeles,CA,90001
168,Partner Services 168,Compliance Services,6862 Main St Suite 201,Atlanta,GA,30301
169,Partner Services 169,Technology Services,1540 Main St Suite 102,Chicago,IL,60601
170,Partner Services 170,Banking Infrastructure,3182 Main St Suite 698,Seattle,WA,98101
171,Partner Services 171,Banking Infrastructure,8150 Main St Suite 129,Miami,FL,33101
172,Partner Services 172,Marketing Platform,1018 Main St Suite 318,Miami,FL,33101
173,Partner Services 173,Compliance Services,3261 Main St Suite 742,San Francisco,CA,94102
174,Partner Services 174,Banking Infrastructure,8109 Main St Suite 242,Austin,TX,78701
175,Partner Services 175,Data Provider,7345 Main St Suite 299,Denver,CO,80201
176,Partner Services 176,Security Services,759 Main St Suite 774,Miami,FL,33101
177,Partner Services 177,Security Services,767 Main St Suite 782,Chicago,IL,60601
178,Partner Services 178,Security Services,7483 Main St Suite 287,New York,NY,10001
179,Partner Services 179,Technology Services,2730 Main St Suite 395,Denver,CO,80201
180,Partner Services 180,Payment Processing,6907 Main St Suite 125,Boston,MA,02101
181,Partner Services 181,Data Provider,2991 Main St Suite 731,Seattle,WA,98101
182,Partner Services 182,Technology Services,1564 Main St Suite 706,Boston,MA,02101
183,Partner Services 183,Marketing Platform,7742 Main St Suite 163,Seattle,WA,98101
184,Partner Services 184,Technology Services,3556 Main St Suite 968,San Francisco,CA,94102
185,Partner Services 185,Technology Services,3146 Main St Suite 147,Denver,CO,80201
186,Partner Services 186,Data Provider,475 Main St Suite 402,Seattle,WA,98101
187,Partner Services 187,Marketing Platform,1085 Main St Suite 329,Austin,TX,78701
188,Partner Services 188,Security Services,2435 Main St Suite 776,Los Angeles,CA,90001
189,Partner Services 189,Compliance Services,217 Main St Suite 793,Atlanta,GA,30301
190,Partner Services 190,Marketing Platform,2863 Main St Suite 298,New York,NY,10001
191,Partner Services 191,Payment Processing,2646 Main St Suite 847,Chicago,IL,60601
192,Partner Services 192,Marketing Platform,4237 Main St Suite 375,Miami,FL,33101
193,Partner Services 193,Marketing Platform,3617 Main St Suite 704,Miami,FL,33101
194,Partner Services 194,Technology Services,2366 Main St Suite 924,Denver,CO,80201
195,Partner Services 195,Payment Processing,7529 Main St Suite 200,New York,NY,10001
196,Partner Services 196,Compliance Services,5794 Main St Suite 512,Atlanta,GA,30301
197,Partner Services 197,Compliance Services,5172 Main St Suite 155,Los Angeles,CA,90001
198,Partner Services 198,Compliance Services,9315 Main St Suite 554,Boston,MA,02101
199,Partner Services 199,Security Services,8176 Main St Suite 704,Miami,FL,33101
200,Partner Services 200,Data Provider,4038 Main St Suite 411,Miami,FL,33101
201,Partner Services 201,Payment Processing,4430 Main St Suite 278,Seattle,WA,98101
202,Partner Services 202,Security Services,1296 Main St Suite 609,San Francisco,CA,94102
203,Partner Services 203,Marketing Platform,948 Main St Suite 936,Boston,MA,02101
204,Partner Services 204,Data Provider,9974 Main St Suite 354,Los Angeles,CA,90001
205,Partner Services 205,Compliance Services,810 Main St Suite 739,Austin,TX,78701
206,Partner Services 206,Banking Infrastructure,5469 Main St Suite 979,Atlanta,GA,30301
207,Partner Services 207,Security Services,1977 Main St Suite 440,Atlanta,GA,30301
208,Partner Services 208,Security Services,1026 Main St Suite 650,Denver,CO,80201
209,Partner Services 209,Security Services,6617 Main St Suite 409,New York,NY,10001
210,Partner Services 210,Technology Services,2722 Main St Suite 873,Denver,CO,80201
211,Partner Services 211,Security Services,5773 Main St Suite 135,Seattle,WA,98101
212,Partner Services 212,Security Services,7062 Main St Suite 669,Los Angeles,CA,90001
213,Partner Services 213,Technology Services,5160 Main St Suite 319,Austin,TX,78701
214,Partner Services 214,Payment Processing,3650 Main St Suite 309,Seattle,WA,98101
215,Partner Services 215,Payment Processing,1638 Main St Suite 765,Chicago,IL,60601
216,Partner Services 216,Data Provider,282 Main St Suite 541,Miami,FL,33101
217,Partner Services 217,Technology Services,5405 Main St Suite 717,Denver,CO,80201
218,Partner Services 218,Payment Processing,4221 Main St Suite 985,Seattle,WA,98101
219,Partner Services 219,Payment Processing,5232 Main St Suite 803,Miami,FL,33101
220,Partner Services 220,Compliance Services,2825 Main St Suite 995,Miami,FL,33101
221,Partner Services 221,Payment Processing,8843 Main St Suite 795,Austin,TX,78701
222,Partner Services 222,Banking Infrastructure,8637 Main St Suite 959,New York,NY,10001
223,Partner Services 223,Marketing Platform,139 Main St Suite 936,New York,NY,10001
224,Partner Services 224,Data Provider,1094 Main St Suite 530,Boston,MA,02101
225,Partner Services 225,Technology Services,2188 Main St Suite 416,Los Angeles,CA,90001
226,Partner Services 226,Payment Processing,3911 Main St Suite 468,Chicago,IL,60601
227,Partner Services 227,Compliance Services,8198 Main St Suite 666,Denver,CO,80201
228,Partner Services 228,Technology Services,3836 Main St Suite 328,New York,NY,10001
229,Partner Services 229,Data Provider,3369 Main St Suite 325,Denver,CO,80201
230,Partner Services 230,Marketing Platform,6427 Main St Suite 307,Los Angeles,CA,90001
231,Partner Services 231,Payment Processing,537 Main St Suite 881,Seattle,WA,98101
232,Partner Services 232,Technology Services,4515 Main St Suite 991,Atlanta,GA,30301
233,Partner Services 233,Technology Services,1537 Main St Suite 411,Los Angeles,CA,90001
234,Partner Services 234,Security Services,1709 Main St Suite 131,Boston,MA,02101
235,Partner Services 235,Technology Services,1096 Main St Suite 166,Seattle,WA,98101
236,Partner Services 236,Marketing Platform,2623 Main St Suite 113,Atlanta,GA,30301
237,Partner Services 237,Security Services,8825 Main St Suite 412,Austin,TX,78701
238,Partner Services 238,Banking Infrastructure,7688 Main St Suite 138,Boston,MA,02101
239,Partner Services 239,Payment Processing,8937 Main St Suite 174,New York,NY,10001
240,Partner Services 240,Marketing Platform,4353 Main St Suite 751,Chicago,IL,60601
241,Partner Services 241,Data Provider,6389 Main St Suite 673,Seattle,WA,98101
242,Partner Services 242,Technology Services,7775 Main St Suite 420,Denver,CO,80201
243,Partner Services 243,Payment Processing,2786 Main St Suite 574,Austin,TX,78701
244,Partner Services 244,Banking Infrastructure,3713 Main St Suite 469,Atlanta,GA,30301
245,Partner Services 245,Data Provider,7626 Main St Suite 877,Atlanta,GA,30301
246,Partner Services 246,Payment Processing,4612 Main St Suite 610,Atlanta,GA,30301
247,Partner Services 247,Data Provider,8976 Main St Suite 410,Austin,TX,78701
248,Partner Services 248,Data Provider,3765 Main St Suite 499,Miami,FL,33101
249,Partner Services 249,Payment Processing,158 Main St Suite 670,Chicago,IL,60601
250,Partner Services 250,Compliance Services,7743 Main St Suite 202,San Francisco,CA,94102
251,Partner Services 251,Marketing Platform,3450 Main St Suite 312,Los Angeles,CA,90001
252,Partner Services 252,Security Services,6496 Main St Suite 150,San Francisco,CA,94102
253,Partner Services 253,Banking Infrastructure,3607 Main St Suite 984,Chicago,IL,60601
254,Partner Services 254,Technology Services,8497 Main St Suite 869,Atlanta,GA,30301
255,Partner Services 255,Marketing Platform,7895 Main St Suite 989,Austin,TX,78701
256,Partner Services 256,Banking Infrastructure,9374 Main St Suite 135,New York,NY,10001
257,Partner Services 257,Payment Processing,9007 Main St Suite 591,San Francisco,CA,94102
258,Partner Services 258,Security Services,561 Main St Suite 641,New York,NY,10001
259,Partner Services 259,Marketing Platform,4628 Main St Suite 150,Denver,CO,80201
260,Partner Services 260,Security Services,1594 Main St Suite 547,Seattle,WA,98101
261,Partner Services 261,Banking Infrastructure,6225 Main St Suite 259,Miami,FL,33101
262,Partner Services 262,Compliance Services,6013 Main St Suite 659,Seattle,WA,98101
263,Partner Services 263,Banking Infrastructure,5675 Main St Suite 991,Atlanta,GA,30301
264,Partner Services 264,Marketing Platform,9568 Main St Suite 658,Atlanta,GA,30301
265,Partner Services 265,Payment Processing,5643 Main St Suite 189,Chicago,IL,60601
266,Partner Services 266,Marketing Platform,9490 Main St Suite 692,Boston,MA,02101
267,Partner Services 267,Banking Infrastructure,721 Main St Suite 997,Chicago,IL,60601
268,Partner Services 268,Data Provider,6196 Main St Suite 568,Boston,MA,02101
269,Partner Services 269,Data Provider,4212 Main St Suite 322,Chicago,IL,60601
270,Partner Services 270,Compliance Services,1836 Main St Suite 202,Los Angeles,CA,90001
271,Partner Services 271,Banking Infrastructure,1532 Main St Suite 663,New York,NY,10001
272,Partner Services 272,Technology Services,7386 Main St Suite 191,New York,NY,10001
273,Partner Services 273,Data Provider,7329 Main St Suite 907,Atlanta,GA,30301
274,Partner Services 274,Marketing Platform,248 Main St Suite 158,Seattle,WA,98101
275,Partner Services 275,Marketing Platform,6953 Main St Suite 749,New York,NY,10001
276,Partner Services 276,Data Provider,2100 Main St Suite 698,Austin,TX,78701
277,Partner Services 277,Banking Infrastructure,6881 Main St Suite 620,Atlanta,GA,30301
278,Partner Services 278,Compliance Services,6214 Main St Suite 905,Miami,FL,33101
279,Partner Services 279,Compliance Services,4704 Main St Suite 195,Atlanta,GA,30301
280,Partner Services 280,Security Services,6687 Main St Suite 253,Austin,TX,78701
281,Partner Services 281,Compliance Services,6064 Main St Suite 935,San Francisco,CA,94102
282,Partner Services 282,Technology Services,5888 Main St Suite 334,Miami,FL,33101
283,Partner Services 283,Marketing Platform,6438 Main St Suite 258,Denver,CO,80201
284,Partner Services 284,Technology Services,3832 Main St Suite 167,Atlanta,GA,30301
285,Partner Services 285,Security Services,7877 Main St Suite 179,Austin,TX,78701
286,Partner Services 286,Compliance Services,160 Main St Suite 271,San Francisco,CA,94102
287,Partner Services 287,Payment Processing,7050 Main St Suite 340,Los Angeles,CA,90001
288,Partner Services 288,Banking Infrastructure,9637 Main St Suite 197,Atlanta,GA,30301
289,Partner Services 289,Data Provider,930 Main St Suite 464,Boston,MA,02101
290,Partner Services 290,Compliance Services,7717 Main St Suite 986,Atlanta,GA,30301
291,Partner Services 291,Data Provider,8644 Main St Suite 892,New York,NY,10001
292,Partner Services 292,Technology Services,8465 Main St Suite 392,Denver,CO,80201
293,Partner Services 293,Security Services,1427 Main St Suite 532,Austin,TX,78701
294,Partner Services 294,Data Provider,7351 Main St Suite 539,Seattle,WA,98101
295,Partner Services 295,Technology Services,5902 Main St Suite 815,San Francisco,CA,94102
296,Partner Services 296,Security Services,5022 Main St Suite 998,Atlanta,GA,30301
297,Partner Services 297,Payment Processing,7200 Main St Suite 640,Boston,MA,02101
298,Partner Services 298,Data Provider,6929 Main St Suite 973,Denver,CO,80201
299,Partner Services 299,Banking Infrastructure,806 Main St Suite 166,Boston,MA,02101
300,Partner Services 300,Marketing Platform,5136 Main St Suite 250,San Francisco,CA,94102
301,Partner Services 301,Technology Services,655 Main St Suite 515,Chicago,IL,60601
302,Partner Services 302,Security Services,5980 Main St Suite 863,San Francisco,CA,94102
303,Partner Services 303,Data Provider,6319 Main St Suite 956,San Francisco,CA,94102
304,Partner Services 304,Banking Infrastructure,4483 Main St Suite 339,New York,NY,10001
305,Partner Services 305,Marketing Platform,4433 Main St Suite 568,Miami,FL,33101
306,Partner Services 306,Banking Infrastructure,8971 Main St Suite 455,Atlanta,GA,30301
307,Partner Services 307,Payment Processing,9549 Main St Suite 972,Boston,MA,02101
308,Partner Services 308,Marketing Platform,463 Main St Suite 920,Austin,TX,78701
309,Partner Services 309,Security Services,6639 Main St Suite 371,Seattle,WA,98101
310,Partner Services 310,Technology Services,3147 Main St Suite 494,Los Angeles,CA,90001
311,Partner Services 311,Payment Processing,6007 Main St Suite 153,Chicago,IL,60601
312,Partner Services 312,Compliance Services,5811 Main St Suite 572,San Francisco,CA,94102
313,Partner Services 313,Payment Processing,9796 Main St Suite 161,San Francisco,CA,94102
314,Partner Services 314,Technology Services,8978 Main St Suite 692,Los Angeles,CA,90001
315,Partner Services 315,Security Services,3867 Main St Suite 248,Miami,FL,33101
316,Partner Services 316,Payment Processing,6037 Main St Suite 366,New York,NY,10001
317,Partner Services 317,Technology Services,3009 Main St Suite 309,Chicago,IL,60601
318,Partner Services 318,Technology Services,798 Main St Suite 909,Los Angeles,CA,90001
319,Partner Services 319,Compliance Services,8650 Main St Suite 648,Miami,FL,33101
320,Partner Services 320,Security Services,497 Main St Suite 205,San Francisco,CA,94102
321,Partner Services 321,Compliance Services,8057 Main St Suite 311,Boston,MA,02101
322,Partner Services 322,Payment Processing,2373 Main St Suite 371,Boston,MA,02101
323,Partner Services 323,Technology Services,411 Main St Suite 416,Chicago,IL,60601
324,Partner Services 324,Security Services,7759 Main St Suite 691,Austin,TX,78701
325,Partner Services 325,Technology Services,1819 Main St Suite 833,San Francisco,CA,94102
326,Partner Services 326,Security Services,1682 Main St Suite 942,Miami,FL,33101
327,Partner Services 327,Data Provider,2253 Main St Suite 101,Austin,TX,78701
328,Partner Services 328,Banking Infrastructure,2268 Main St Suite 118,Denver,CO,80201
329,Partner Services 329,Technology Services,576 Main St Suite 979,San Francisco,CA,94102
330,Partner Services 330,Marketing Platform,3644 Main St Suite 361,Denver,CO,80201
331,Partner Services 331,Security Services,3815 Main St Suite 311,Seattle,WA,98101
332,Partner Services 332,Payment Processing,8779 Main St Suite 856,New York,NY,10001
333,Partner Services 333,Data Provider,8949 Main St Suite 333,Atlanta,GA,30301
334,Partner Services 334,Compliance Services,2392 Main St Suite 365,Seattle,WA,98101
335,Partner Services 335,Data Provider,4503 Main St Suite 273,Atlanta,GA,30301
336,Partner Services 336,Technology Services,1804 Main St Suite 640,Austin,TX,78701
337,Partner Services 337,Marketing Platform,4983 Main St Suite 993,Atlanta,GA,30301
338,Partner Services 338,Compliance Services,7786 Main St Suite 720,Atlanta,GA,30301
339,Partner Services 339,Data Provider,8819 Main St Suite 596,Boston,MA,02101
340,Partner Services 340,Data Provider,2768 Main St Suite 181,New York,NY,10001
341,Partner Services 341,Payment Processing,3283 Main St Suite 523,Boston,MA,02101
342,Partner Services 342,Data Provider,5324 Main St Suite 471,Atlanta,GA,30301
343,Partner Services 343,Data Provider,2627 Main St Suite 726,Seattle,WA,98101
344,Partner Services 344,Payment Processing,1947 Main St Suite 273,New York,NY,10001
345,Partner Services 345,Payment Processing,8198 Main St Suite 667,New York,NY,10001
346,Partner Services 346,Data Provider,3870 Main St Suite 234,Miami,FL,33101
347,Partner Services 347,Marketing Platform,2905 Main St Suite 924,Boston,MA,02101
348,Partner Services 348,Security Services,7255 Main St Suite 219,Los Angeles,CA,90001
349,Partner Services 349,Technology Services,3571 Main St Suite 792,Atlanta,GA,30301
350,Partner Services 350,Security Services,5594 Main St Suite 452,Miami,FL,33101
351,Partner Services 351,Data Provider,203 Main St Suite 667,Chicago,IL,60601
352,Partner Services 352,Technology Services,5802 Main St Suite 731,Denver,CO,80201
353,Partner Services 353,Marketing Platform,8889 Main St Suite 217,Atlanta,GA,30301
354,Partner Services 354,Payment Processing,8461 Main St Suite 691,Miami,FL,33101
355,Partner Services 355,Marketing Platform,9641 Main St Suite 525,Atlanta,GA,30301
356,Partner Services 356,Technology Services,7397 Main St Suite 969,Los Angeles,CA,90001
357,Partner Services 357,Data Provider,226 Main St Suite 144,Atlanta,GA,30301
358,Partner Services 358,Payment Processing,3174 Main St Suite 687,Seattle,WA,98101
359,Partner Services 359,Marketing Platform,1869 Main St Suite 833,Atlanta,GA,30301
360,Partner Services 360,Payment Processing,9271 Main St Suite 947,Miami,FL,33101
361,Partner Services 361,Technology Services,2600 Main St Suite 842,Chicago,IL,60601
362,Partner Services 362,Compliance Services,6681 Main St Suite 678,Boston,MA,02101
363,Partner Services 363,Technology Services,2467 Main St Suite 680,Boston,MA,02101
364,Partner Services 364,Banking Infrastructure,3904 Main St Suite 447,Chicago,IL,60601
365,Partner Services 365,Banking Infrastructure,5727 Main St Suite 346,Seattle,WA,98101
366,Partner Services 366,Data Provider,7178 Main St Suite 676,Miami,FL,33101
367,Partner Services 367,Payment Processing,7756 Main St Suite 238,Atlanta,GA,30301
368,Partner Services 368,Payment Processing,2765 Main St Suite 210,Boston,MA,02101
369,Partner Services 369,Payment Processing,1590 Main St Suite 263,Atlanta,GA,30301
370,Partner Services 370,Compliance Services,2737 Main St Suite 133,Denver,CO,80201
371,Partner Services 371,Technology Services,3352 Main St Suite 662,Los Angeles,CA,90001
372,Partner Services 372,Banking Infrastructure,7914 Main St Suite 816,Atlanta,GA,30301
373,Partner Services 373,Data Provider,7026 Main St Suite 945,San Francisco,CA,94102
374,Partner Services 374,Payment Processing,8523 Main St Suite 665,Los Angeles,CA,90001
375,Partner Services 375,Security Services,7435 Main St Suite 365,Atlanta,GA,30301
376,Partner Services 376,Payment Processing,2327 Main St Suite 871,New York,NY,10001
377,Partner Services 377,Banking Infrastructure,5559 Main St Suite 469,Denver,CO,80201
378,Partner Services 378,Data Provider,3626 Main St Suite 656,Chicago,IL,60601
379,Partner Services 379,Banking Infrastructure,2883 Main St Suite 846,Austin,TX,78701
380,Partner Services 380,Security Services,617 Main St Suite 296,Austin,TX,78701
381,Partner Services 381,Security Services,1950 Main St Suite 260,Atlanta,GA,30301
382,Partner Services 382,Compliance Services,3921 Main St Suite 371,San Francisco,CA,94102
383,Partner Services 383,Marketing Platform,8665 Main St Suite 554,Atlanta,GA,30301
384,Partner Services 384,Banking Infrastructure,3200 Main St Suite 359,Miami,FL,33101
385,Partner Services 385,Payment Processing,6653 Main St Suite 318,Miami,FL,33101
386,Partner Services 386,Marketing Platform,2166 Main St Suite 953,Austin,TX,78701
387,Partner Services 387,Payment Processing,6661 Main St Suite 925,Los Angeles,CA,90001
388,Partner Services 388,Payment Processing,8980 Main St Suite 981,Denver,CO,80201
389,Partner Services 389,Banking Infrastructure,2293 Main St Suite 249,Miami,FL,33101
390,Partner Services 390,Compliance Services,2011 Main St Suite 983,Boston,MA,02101
391,Partner Services 391,Compliance Services,3121 Main St Suite 809,Denver,CO,80201
392,Partner Services 392,Banking Infrastructure,9125 Main St Suite 567,Boston,MA,02101
393,Partner Services 393,Security Services,4634 Main St Suite 194,Chicago,IL,60601
394,Partner Services 394,Technology Services,7870 Main St Suite 660,Seattle,WA,98101
395,Partner Services 395,Marketing Platform,8829 Main St Suite 783,San Francisco,CA,94102
396,Partner Services 396,Payment Processing,8333 Main St Suite 873,New York,NY,10001
397,Partner Services 397,Security Services,6811 Main St Suite 127,Boston,MA,02101
398,Partner Services 398,Marketing Platform,3260 Main St Suite 944,Miami,FL,33101
399,Partner Services 399,Marketing Platform,6475 Main St Suite 340,Miami,FL,33101
400,Partner Services 400,Technology Services,7632 Main St Suite 165,New York,NY,10001
401,Partner Services 401,Data Provider,5889 Main St Suite 449,Denver,CO,80201
402,Partner Services 402,Banking Infrastructure,1318 Main St Suite 222,Seattle,WA,98101
403,Partner Services 403,Compliance Services,1347 Main St Suite 393,Atlanta,GA,30301
404,Partner Services 404,Technology Services,5940 Main St Suite 786,Seattle,WA,98101
405,Partner Services 405,Compliance Services,8805 Main St Suite 496,Los Angeles,CA,90001
406,Partner Services 406,Technology Services,2872 Main St Suite 625,Atlanta,GA,30301
407,Partner Services 407,Banking Infrastructure,1380 Main St Suite 733,Atlanta,GA,30301
408,Partner Services 408,Payment Processing,2694 Main St Suite 792,San Francisco,CA,94102
409,Partner Services 409,Banking Infrastructure,3816 Main St Suite 859,Denver,CO,80201
410,Partner Services 410,Marketing Platform,4478 Main St Suite 797,Austin,TX,78701
411,Partner Services 411,Banking Infrastructure,5493 Main St Suite 217,Chicago,IL,60601
412,Partner Services 412,Payment Processing,1999 Main St Suite 890,Austin,TX,78701
413,Partner Services 413,Technology Services,8690 Main St Suite 377,Atlanta,GA,30301
414,Partner Services 414,Payment Processing,1083 Main St Suite 773,Los Angeles,CA,90001
415,Partner Services 415,Compliance Services,3155 Main St Suite 844,Atlanta,GA,30301
416,Partner Services 416,Technology Services,7227 Main St Suite 782,Miami,FL,33101
417,Partner Services 417,Compliance Services,1252 Main St Suite 669,Denver,CO,80201
418,Partner Services 418,Banking Infrastructure,5928 Main St Suite 265,New York,NY,10001
419,Partner Services 419,Technology Services,7074 Main St Suite 464,New York,NY,10001
420,Partner Services 420,Data Provider,6782 Main St Suite 470,New York,NY,10001
421,Partner Services 421,Compliance Services,1577 Main St Suite 517,Austin,TX,78701
422,Partner Services 422,Technology Services,1665 Main St Suite 588,Los Angeles,CA,90001
423,Partner Services 423,Marketing Platform,1969 Main St Suite 959,San Francisco,CA,94102
424,Partner Services 424,Compliance Services,2139 Main St Suite 808,San Francisco,CA,94102
425,Partner Services 425,Marketing Platform,3315 Main St Suite 935,Denver,CO,80201
426,Partner Services 426,Technology Services,2266 Main St Suite 935,Seattle,WA,98101
427,Partner Services 427,Compliance Services,879 Main St Suite 288,Denver,CO,80201
428,Partner Services 428,Marketing Platform,5482 Main St Suite 233,Chicago,IL,60601
429,Partner Services 429,Compliance Services,1547 Main St Suite 612,San Francisco,CA,94102
430,Partner Services 430,Banking Infrastructure,6506 Main St Suite 426,Miami,FL,33101
431,Partner Services 431,Marketing Platform,2709 Main St Suite 597,Miami,FL,33101
432,Partner Services 432,Security Services,6984 Main St Suite 114,New York,NY,10001
433,Partner Services 433,Marketing Platform,5641 Main St Suite 634,Miami,FL,33101
434,Partner Services 434,Data Provider,1986 Main St Suite 689,Miami,FL,33101
435,Partner Services 435,Security Services,8451 Main St Suite 197,Miami,FL,33101
436,Partner Services 436,Payment Processing,4059 Main St Suite 147,San Francisco,CA,94102
437,Partner Services 437,Technology Services,5785 Main St Suite 190,Denver,CO,80201
438,Partner Services 438,Data Provider,2003 Main St Suite 805,Austin,TX,78701
439,Partner Services 439,Technology Services,7805 Main St Suite 430,Los Angeles,CA,90001
440,Partner Services 440,Data Provider,1803 Main St Suite 251,San Francisco,CA,94102
441,Partner Services 441,Banking Infrastructure,6698 Main St Suite 789,Miami,FL,33101
442,Partner Services 442,Technology Services,1058 Main St Suite 155,Denver,CO,80201
443,Partner Services 443,Data Provider,9422 Main St Suite 306,Atlanta,GA,30301
444,Partner Services 444,Marketing Platform,5662 Main St Suite 714,Miami,FL,33101
445,Partner Services 445,Marketing Platform,9399 Main St Suite 989,Chicago,IL,60601
446,Partner Services 446,Payment Processing,4947 Main St Suite 885,Boston,MA,02101
447,Partner Services 447,Data Provider,1404 Main St Suite 863,Denver,CO,80201
448,Partner Services 448,Technology Services,6441 Main St Suite 169,New York,NY,10001
449,Partner Services 449,Technology Services,2174 Main St Suite 763,Denver,CO,80201
450,Partner Services 450,Security Services,7732 Main St Suite 898,Chicago,IL,60601
451,Partner Services 451,Banking Infrastructure,8173 Main St Suite 227,Miami,FL,33101
452,Partner Services 452,Banking Infrastructure,3989 Main St Suite 916,Boston,MA,02101
453,Partner Services 453,Data Provider,6248 Main St Suite 166,Austin,TX,78701
454,Partner Services 454,Payment Processing,3016 Main St Suite 510,Miami,FL,33101
455,Partner Services 455,Banking Infrastructure,4733 Main St Suite 278,New York,NY,10001
456,Partner Services 456,Compliance Services,7464 Main St Suite 939,New York,NY,10001
457,Partner Services 457,Security Services,8694 Main St Suite 497,Atlanta,GA,30301
458,Partner Services 458,Data Provider,6189 Main St Suite 101,Miami,FL,33101
459,Partner Services 459,Banking Infrastructure,6580 Main St Suite 381,Miami,FL,33101
460,Partner Services 460,Technology Services,3377 Main St Suite 128,Boston,MA,02101
461,Partner Services 461,Marketing Platform,1888 Main St Suite 791,San Francisco,CA,94102
462,Partner Services 462,Payment Processing,2537 Main St Suite 335,Boston,MA,02101
463,Partner Services 463,Banking Infrastructure,714 Main St Suite 522,New York,NY,10001
464,Partner Services 464,Banking Infrastructure,3596 Main St Suite 712,New York,NY,10001
465,Partner Services 465,Banking Infrastructure,5666 Main St Suite 810,Atlanta,GA,30301
466,Partner Services 466,Compliance Services,2122 Main St Suite 181,Chicago,IL,60601
467,Partner Services 467,Banking Infrastructure,8860 Main St Suite 769,Los Angeles,CA,90001
468,Partner Services 468,Data Provider,8796 Main St Suite 930,Austin,TX,78701
469,Partner Services 469,Banking Infrastructure,4407 Main St Suite 437,San Francisco,CA,94102
470,Partner Services 470,Marketing Platform,249 Main St Suite 436,Boston,MA,02101
471,Partner Services 471,Compliance Services,1365 Main St Suite 869,Miami,FL,33101
472,Partner Services 472,Compliance Services,9411 Main St Suite 169,Seattle,WA,98101
473,Partner Services 473,Compliance Services,1990 Main St Suite 783,Los Angeles,CA,90001
474,Partner Services 474,Compliance Services,9002 Main St Suite 907,Los Angeles,CA,90001
475,Partner Services 475,Technology Services,2300 Main St Suite 788,Miami,FL,33101
476,Partner Services 476,Compliance Services,8344 Main St Suite 194,Austin,TX,78701
477,Partner Services 477,Compliance Services,4467 Main St Suite 478,San Francisco,CA,94102
478,Partner Services 478,Marketing Platform,4676 Main St Suite 557,Denver,CO,80201
479,Partner Services 479,Data Provider,6242 Main St Suite 254,Denver,CO,80201
480,Partner Services 480,Payment Processing,4799 Main St Suite 469,Austin,TX,78701
481,Partner Services 481,Technology Services,8244 Main St Suite 384,Miami,FL,33101
482,Partner Services 482,Marketing Platform,4594 Main St Suite 122,Austin,TX,78701
483,Partner Services 483,Compliance Services,6009 Main St Suite 643,Miami,FL,33101
484,Partner Services 484,Data Provider,1808 Main St Suite 579,San Francisco,CA,94102
485,Partner Services 485,Data Provider,5144 Main St Suite 368,Los Angeles,CA,90001
486,Partner Services 486,Banking Infrastructure,8366 Main St Suite 823,San Francisco,CA,94102
487,Partner Services 487,Marketing Platform,101 Main St Suite 478,Chicago,IL,60601
488,Partner Services 488,Payment Processing,9463 Main St Suite 722,Miami,FL,33101
489,Partner Services 489,Technology Services,5786 Main St Suite 791,Miami,FL,33101
490,Partner Services 490,Data Provider,1861 Main St Suite 563,Denver,CO,80201
491,Partner Services 491,Banking Infrastructure,2681 Main St Suite 461,Boston,MA,02101
492,Partner Services 492,Data Provider,3227 Main St Suite 183,Austin,TX,78701
493,Partner Services 493,Payment Processing,9214 Main St Suite 309,Seattle,WA,98101
494,Partner Services 494,Data Provider,9751 Main St Suite 417,Los Angeles,CA,90001
495,Partner Services 495,Banking Infrastructure,7432 Main St Suite 993,Seattle,WA,98101
496,Partner Services 496,Marketing Platform,5260 Main St Suite 404,Atlanta,GA,30301
497,Partner Services 497,Banking Infrastructure,6044 Main St Suite 403,Atlanta,GA,30301
498,Partner Services 498,Technology Services,3732 Main St Suite 658,Chicago,IL,60601
499,Partner Services 499,Payment Processing,1512 Main St Suite 293,New York,NY,10001
500,Partner Services 500,Security Services,9533 Main St Suite 461,Boston,MA,02101
501,Partner Services 501,Banking Infrastructure,4258 Main St Suite 188,Austin,TX,78701
502,Partner Services 502,Payment Processing,9964 Main St Suite 882,Miami,FL,33101
503,Partner Services 503,Payment Processing,2130 Main St Suite 515,New York,NY,10001
504,Partner Services 504,Compliance Services,9826 Main St Suite 604,Miami,FL,33101
505,Partner Services 505,Compliance Services,6418 Main St Suite 494,Denver,CO,80201
506,Partner Services 506,Compliance Services,3332 Main St Suite 317,Seattle,WA,98101
507,Partner Services 507,Security Services,3256 Main St Suite 551,Atlanta,GA,30301
508,Partner Services 508,Payment Processing,9233 Main St Suite 623,Los Angeles,CA,90001
509,Partner Services 509,Compliance Services,3929 Main St Suite 193,Austin,TX,78701
510,Partner Services 510,Compliance Services,3269 Main St Suite 608,Los Angeles,CA,90001
511,Partner Services 511,Compliance Services,4309 Main St Suite 324,Boston,MA,02101
512,Partner Services 512,Marketing Platform,390 Main St Suite 180,Denver,CO,80201
513,Partner Services 513,Technology Services,4626 Main St Suite 433,Austin,TX,78701
514,Partner Services 514,Marketing Platform,9799 Main St Suite 110,Denver,CO,80201
515,Partner Services 515,Payment Processing,4219 Main St Suite 195,Los Angeles,CA,90001
516,Partner Services 516,Banking Infrastructure,613 Main St Suite 355,San Francisco,CA,94102
517,Partner Services 517,Technology Services,908 Main St Suite 172,San Francisco,CA,94102
518,Partner Services 518,Payment Processing,7269 Main St Suite 723,Chicago,IL,60601
519,Partner Services 519,Compliance Services,8166 Main St Suite 415,Los Angeles,CA,90001
520,Partner Services 520,Data Provider,3868 Main St Suite 800,Austin,TX,78701
521,Partner Services 521,Security Services,6630 Main St Suite 544,Seattle,WA,98101
522,Partner Services 522,Security Services,216 Main St Suite 443,Atlanta,GA,30301
523,Partner Services 523,Technology Services,7307 Main St Suite 790,Denver,CO,80201
524,Partner Services 524,Technology Services,7118 Main St Suite 399,Los Angeles,CA,90001
525,Partner Services 525,Technology Services,3245 Main St Suite 518,Boston,MA,02101
526,Partner Services 526,Marketing Platform,8801 Main St Suite 577,Chicago,IL,60601
527,Partner Services 527,Technology Services,2684 Main St Suite 194,San Francisco,CA,94102
528,Partner Services 528,Payment Processing,3126 Main St Suite 417,Miami,FL,33101
529,Partner Services 529,Compliance Services,7696 Main St Suite 939,New York,NY,10001
530,Partner Services 530,Marketing Platform,1105 Main St Suite 590,Miami,FL,33101
531,Partner Services 531,Technology Services,7942 Main St Suite 363,New York,NY,10001
532,Partner Services 532,Marketing Platform,3612 Main St Suite 878,Denver,CO,80201
533,Partner Services 533,Banking Infrastructure,200 Main St Suite 993,Atlanta,GA,30301
534,Partner Services 534,Payment Processing,4468 Main St Suite 373,Chicago,IL,60601
535,Partner Services 535,Technology Services,297 Main St Suite 210,San Francisco,CA,94102
536,Partner Services 536,Payment Processing,2501 Main St Suite 923,Denver,CO,80201
537,Partner Services 537,Compliance Services,3876 Main St Suite 987,Miami,FL,33101
538,Partner Services 538,Marketing Platform,5258 Main St Suite 946,Los Angeles,CA,90001
539,Partner Services 539,Payment Processing,5553 Main St Suite 569,Chicago,IL,60601
540,Partner Services 540,Security Services,7227 Main St Suite 542,Austin,TX,78701
541,Partner Services 541,Banking Infrastructure,407 Main St Suite 354,Denver,CO,80201
542,Partner Services 542,Payment Processing,1811 Main St Suite 473,Chicago,IL,60601
543,Partner Services 543,Data Provider,7508 Main St Suite 611,New York,NY,10001
544,Partner Services 544,Security Services,2570 Main St Suite 239,Boston,MA,02101
545,Partner Services 545,Technology Services,2035 Main St Suite 194,Chicago,IL,60601
546,Partner Services 546,Compliance Services,7882 Main St Suite 864,Miami,FL,33101
547,Partner Services 547,Security Services,946 Main St Suite 639,San Francisco,CA,94102
548,Partner Services 548,Compliance Services,2553 Main St Suite 337,Chicago,IL,60601
549,Partner Services 549,Data Provider,8242 Main St Suite 368,San Francisco,CA,94102
550,Partner Services 550,Security Services,4834 Main St Suite 648,Seattle,WA,98101
551,Partner Services 551,Data Provider,636 Main St Suite 435,Denver,CO,80201
552,Partner Services 552,Technology Services,4964 Main St Suite 418,Los Angeles,CA,90001
553,Partner Services 553,Data Provider,2501 Main St Suite 691,New York,NY,10001
554,Partner Services 554,Banking Infrastructure,9347 Main St Suite 432,Seattle,WA,98101
555,Partner Services 555,Banking Infrastructure,9482 Main St Suite 622,Boston,MA,02101
556,Partner Services 556,Marketing Platform,3367 Main St Suite 722,New York,NY,10001
557,Partner Services 557,Payment Processing,3688 Main St Suite 276,Denver,CO,80201
558,Partner Services 558,Data Provider,580 Main St Suite 963,Los Angeles,CA,90001
559,Partner Services 559,Payment Processing,1729 Main St Suite 243,New York,NY,10001
560,Partner Services 560,Banking Infrastructure,527 Main St Suite 927,Miami,FL,33101
561,Partner Services 561,Marketing Platform,6337 Main St Suite 871,San Francisco,CA,94102
562,Partner Services 562,Compliance Services,6570 Main St Suite 819,Boston,MA,02101
563,Partner Services 563,Payment Processing,2484 Main St Suite 136,Los Angeles,CA,90001
564,Partner Services 564,Payment Processing,4824 Main St Suite 874,Atlanta,GA,30301
565,Partner Services 565,Technology Services,1854 Main St Suite 710,Los Angeles,CA,90001
566,Partner Services 566,Security Services,9450 Main St Suite 103,Miami,FL,33101
567,Partner Services 567,Data Provider,5122 Main St Suite 183,Atlanta,GA,30301
568,Partner Services 568,Technology Services,6110 Main St Suite 896,Austin,TX,78701
569,Partner Services 569,Banking Infrastructure,5352 Main St Suite 825,Miami,FL,33101
570,Partner Services 570,Compliance Services,5237 Main St Suite 681,New York,NY,10001
571,Partner Services 571,Security Services,5135 Main St Suite 247,Miami,FL,33101
572,Partner Services 572,Banking Infrastructure,3270 Main St Suite 212,San Francisco,CA,94102
573,Partner Services 573,Security Services,8417 Main St Suite 203,New York,NY,10001
574,Partner Services 574,Data Provider,9047 Main St Suite 159,Los Angeles,CA,90001
575,Partner Services 575,Technology Services,4243 Main St Suite 259,Atlanta,GA,30301
576,Partner Services 576,Technology Services,6227 Main St Suite 461,Seattle,WA,98101
577,Partner Services 577,Security Services,4426 Main St Suite 958,Chicago,IL,60601
578,Partner Services 578,Technology Services,3573 Main St Suite 692,Seattle,WA,98101
579,Partner Services 579,Marketing Platform,9224 Main St Suite 533,Seattle,WA,98101
580,Partner Services 580,Security Services,7744 Main St Suite 253,Austin,TX,78701
581,Partner Services 581,Security Services,4513 Main St Suite 265,Los Angeles,CA,90001
582,Partner Services 582,Data Provider,1788 Main St Suite 972,New York,NY,10001
583,Partner Services 583,Banking Infrastructure,2734 Main St Suite 593,Atlanta,GA,30301
584,Partner Services 584,Technology Services,6263 Main St Suite 796,Denver,CO,80201
585,Partner Services 585,Banking Infrastructure,1175 Main St Suite 505,Boston,MA,02101
586,Partner Services 586,Security Services,1195 Main St Suite 310,Denver,CO,80201
587,Partner Services 587,Compliance Services,8070 Main St Suite 943,Boston,MA,02101
588,Partner Services 588,Data Provider,2768 Main St Suite 623,Los Angeles,CA,90001
589,Partner Services 589,Banking Infrastructure,8977 Main St Suite 920,New York,NY,10001
590,Partner Services 590,Data Provider,145 Main St Suite 620,Atlanta,GA,30301
591,Partner Services 591,Marketing Platform,9909 Main St Suite 336,Miami,FL,33101
592,Partner Services 592,Data Provider,9818 Main St Suite 237,Austin,TX,78701
593,Partner Services 593,Marketing Platform,281 Main St Suite 771,Atlanta,GA,30301
594,Partner Services 594,Payment Processing,7223 Main St Suite 798,Atlanta,GA,30301
595,Partner Services 595,Compliance Services,752 Main St Suite 424,Denver,CO,80201
596,Partner Services 596,Security Services,1089 Main St Suite 867,Los Angeles,CA,90001
597,Partner Services 597,Payment Processing,3966 Main St Suite 297,San Francisco,CA,94102
598,Partner Services 598,Compliance Services,2300 Main St Suite 916,San Francisco,CA,94102
599,Partner Services 599,Compliance Services,8147 Main St Suite 674,New York,NY,10001
600,Partner Services 600,Payment Processing,8740 Main St Suite 111,Boston,MA,02101
601,Partner Services 601,Compliance Services,6816 Main St Suite 137,Denver,CO,80201
602,Partner Services 602,Banking Infrastructure,7302 Main St Suite 889,Miami,FL,33101
603,Partner Services 603,Data Provider,2996 Main St Suite 203,Boston,MA,02101
604,Partner Services 604,Marketing Platform,7005 Main St Suite 227,Seattle,WA,98101
605,Partner Services 605,Security Services,9968 Main St Suite 845,Boston,MA,02101
606,Partner Services 606,Data Provider,2103 Main St Suite 637,Los Angeles,CA,90001
607,Partner Services 607,Data Provider,903 Main St Suite 683,San Francisco,CA,94102
608,Partner Services 608,Payment Processing,8162 Main St Suite 698,Denver,CO,80201
609,Partner Services 609,Data Provider,228 Main St Suite 500,Seattle,WA,98101
610,Partner Services 610,Security Services,3557 Main St Suite 135,Austin,TX,78701
611,Partner Services 611,Marketing Platform,6025 Main St Suite 673,Miami,FL,33101
612,Partner Services 612,Security Services,7158 Main St Suite 787,New York,NY,10001
613,Partner Services 613,Payment Processing,4204 Main St Suite 632,San Francisco,CA,94102
614,Partner Services 614,Data Provider,6294 Main St Suite 915,Austin,TX,78701
615,Partner Services 615,Data Provider,690 Main St Suite 380,San Francisco,CA,94102
616,Partner Services 616,Technology Services,738 Main St Suite 706,Boston,MA,02101
617,Partner Services 617,Banking Infrastructure,9557 Main St Suite 740,Austin,TX,78701
618,Partner Services 618,Security Services,7892 Main St Suite 181,New York,NY,10001
619,Partner Services 619,Security Services,4095 Main St Suite 865,New York,NY,10001
620,Partner Services 620,Marketing Platform,8129 Main St Suite 574,Los Angeles,CA,90001
621,Partner Services 621,Compliance Services,5812 Main St Suite 922,Denver,CO,80201
622,Partner Services 622,Technology Services,7839 Main St Suite 911,Denver,CO,80201
623,Partner Services 623,Data Provider,7266 Main St Suite 184,Boston,MA,02101
624,Partner Services 624,Payment Processing,6923 Main St Suite 353,Seattle,WA,98101
625,Partner Services 625,Technology Services,8704 Main St Suite 163,Chicago,IL,60601
626,Partner Services 626,Compliance Services,4341 Main St Suite 325,Los Angeles,CA,90001
627,Partner Services 627,Banking Infrastructure,6525 Main St Suite 822,Denver,CO,80201
628,Partner Services 628,Technology Services,6140 Main St Suite 988,Seattle,WA,98101
629,Partner Services 629,Marketing Platform,8972 Main St Suite 652,Denver,CO,80201
630,Partner Services 630,Security Services,525 Main St Suite 173,Denver,CO,80201
631,Partner Services 631,Payment Processing,3437 Main St Suite 116,Denver,CO,80201
632,Partner Services 632,Security Services,458 Main St Suite 446,Atlanta,GA,30301
633,Partner Services 633,Technology Services,7305 Main St Suite 460,New York,NY,10001
634,Partner Services 634,Technology Services,9403 Main St Suite 184,Denver,CO,80201
635,Partner Services 635,Technology Services,2561 Main St Suite 108,Los Angeles,CA,90001
636,Partner Services 636,Marketing Platform,751 Main St Suite 504,Atlanta,GA,30301
637,Partner Services 637,Marketing Platform,5973 Main St Suite 934,San Francisco,CA,94102
638,Partner Services 638,Compliance Services,1019 Main St Suite 540,Boston,MA,02101
639,Partner Services 639,Payment Processing,2958 Main St Suite 877,Seattle,WA,98101
640,Partner Services 640,Marketing Platform,2049 Main St Suite 954,Boston,MA,02101
641,Partner Services 641,Compliance Services,1877 Main St Suite 280,New York,NY,10001
642,Partner Services 642,Payment Processing,5151 Main St Suite 681,Los Angeles,CA,90001
643,Partner Services 643,Payment Processing,7267 Main St Suite 971,Austin,TX,78701
644,Partner Services 644,Security Services,8490 Main St Suite 983,Boston,MA,02101
645,Partner Services 645,Security Services,900 Main St Suite 143,New York,NY,10001
646,Partner Services 646,Marketing Platform,8038 Main St Suite 607,Los Angeles,CA,90001
647,Partner Services 647,Banking Infrastructure,5223 Main St Suite 455,Seattle,WA,98101
648,Partner Services 648,Banking Infrastructure,654 Main St Suite 902,Chicago,IL,60601
649,Partner Services 649,Marketing Platform,5713 Main St Suite 200,Austin,TX,78701
650,Partner Services 650,Technology Services,8792 Main St Suite 851,San Francisco,CA,94102
651,Partner Services 651,Security Services,3101 Main St Suite 215,Atlanta,GA,30301
652,Partner Services 652,Technology Services,5701 Main St Suite 531,Miami,FL,33101
653,Partner Services 653,Compliance Services,1699 Main St Suite 285,Seattle,WA,98101
654,Partner Services 654,Banking Infrastructure,7597 Main St Suite 640,Boston,MA,02101
655,Partner Services 655,Banking Infrastructure,9657 Main St Suite 361,Atlanta,GA,30301
656,Partner Services 656,Technology Services,4879 Main St Suite 362,New York,NY,10001
657,Partner Services 657,Technology Services,1869 Main St Suite 603,Denver,CO,80201
658,Partner Services 658,Security Services,2745 Main St Suite 518,Austin,TX,78701
659,Partner Services 659,Marketing Platform,8804 Main St Suite 754,San Francisco,CA,94102
660,Partner Services 660,Security Services,1271 Main St Suite 725,Chicago,IL,60601
661,Partner Services 661,Security Services,865 Main St Suite 696,Denver,CO,80201
662,Partner Services 662,Marketing Platform,3507 Main St Suite 882,Los Angeles,CA,90001
663,Partner Services 663,Data Provider,7836 Main St Suite 982,New York,NY,10001
664,Partner Services 664,Marketing Platform,638 Main St Suite 180,Los Angeles,CA,90001
665,Partner Services 665,Payment Processing,5748 Main St Suite 298,Chicago,IL,60601
666,Partner Services 666,Technology Services,9596 Main St Suite 817,Seattle,WA,98101
667,Partner Services 667,Banking Infrastructure,4683 Main St Suite 850,Atlanta,GA,30301
668,Partner Services 668,Technology Services,2151 Main St Suite 395,Los Angeles,CA,90001
669,Partner Services 669,Banking Infrastructure,3843 Main St Suite 498,Seattle,WA,98101
670,Partner Services 670,Payment Processing,6959 Main St Suite 955,San Francisco,CA,94102
671,Partner Services 671,Compliance Services,603 Main St Suite 604,Chicago,IL,60601
672,Partner Services 672,Payment Processing,8925 Main St Suite 101,Los Angeles,CA,90001
673,Partner Services 673,Marketing Platform,4596 Main St Suite 702,Chicago,IL,60601
674,Partner Services 674,Security Services,329 Main St Suite 724,New York,NY,10001
675,Partner Services 675,Technology Services,6369 Main St Suite 307,Los Angeles,CA,90001
676,Partner Services 676,Compliance Services,9887 Main St Suite 493,Atlanta,GA,30301
677,Partner Services 677,Compliance Services,6722 Main St Suite 878,Los Angeles,CA,90001
678,Partner Services 678,Security Services,4602 Main St Suite 329,Miami,FL,33101
679,Partner Services 679,Banking Infrastructure,2057 Main St Suite 464,Seattle,WA,98101
680,Partner Services 680,Marketing Platform,1419 Main St Suite 711,Boston,MA,02101
681,Partner Services 681,Technology Services,8264 Main St Suite 590,Miami,FL,33101
682,Partner Services 682,Compliance Services,5883 Main St Suite 357,Denver,CO,80201
683,Partner Services 683,Payment Processing,4289 Main St Suite 100,Los Angeles,CA,90001
684,Partner Services 684,Payment Processing,8689 Main St Suite 772,New York,NY,10001
685,Partner Services 685,Data Provider,9685 Main St Suite 395,Miami,FL,33101
686,Partner Services 686,Security Services,3711 Main St Suite 161,San Francisco,CA,94102
687,Partner Services 687,Data Provider,2538 Main St Suite 729,Boston,MA,02101
688,Partner Services 688,Technology Services,1608 Main St Suite 121,Miami,FL,33101
689,Partner Services 689,Data Provider,1495 Main St Suite 798,New York,NY,10001
690,Partner Services 690,Security Services,1525 Main St Suite 538,Miami,FL,33101
691,Partner Services 691,Security Services,6572 Main St Suite 419,Boston,MA,02101
692,Partner Services 692,Compliance Services,6538 Main St Suite 994,San Francisco,CA,94102
693,Partner Services 693,Compliance Services,1957 Main St Suite 229,Seattle,WA,98101
694,Partner Services 694,Payment Processing,4229 Main St Suite 127,Denver,CO,80201
695,Partner Services 695,Data Provider,4969 Main St Suite 109,Boston,MA,02101
696,Partner Services 696,Payment Processing,463 Main St Suite 512,Denver,CO,80201
697,Partner Services 697,Compliance Services,7922 Main St Suite 632,San Francisco,CA,94102
698,Partner Services 698,Compliance Services,1880 Main St Suite 676,New York,NY,10001
699,Partner Services 699,Marketing Platform,7394 Main St Suite 799,Boston,MA,02101
700,Partner Services 700,Banking Infrastructure,7396 Main St Suite 392,Boston,MA,02101
701,Partner Services 701,Marketing Platform,4507 Main St Suite 262,Denver,CO,80201
702,Partner Services 702,Compliance Services,6526 Main St Suite 875,Denver,CO,80201
703,Partner Services 703,Banking Infrastructure,8776 Main St Suite 230,Seattle,WA,98101
704,Partner Services 704,Banking Infrastructure,1612 Main St Suite 415,San Francisco,CA,94102
705,Partner Services 705,Banking Infrastructure,8456 Main St Suite 125,Austin,TX,78701
706,Partner Services 706,Marketing Platform,7139 Main St Suite 846,Austin,TX,78701
707,Partner Services 707,Technology Services,6265 Main St Suite 382,Los Angeles,CA,90001
708,Partner Services 708,Technology Services,5936 Main St Suite 257,Atlanta,GA,30301
709,Partner Services 709,Data Provider,4172 Main St Suite 803,Denver,CO,80201
710,Partner Services 710,Banking Infrastructure,7708 Main St Suite 149,Seattle,WA,98101
711,Partner Services 711,Banking Infrastructure,5832 Main St Suite 521,New York,NY,10001
712,Partner Services 712,Payment Processing,8456 Main St Suite 824,Boston,MA,02101
713,Partner Services 713,Marketing Platform,3783 Main St Suite 851,New York,NY,10001
714,Partner Services 714,Payment Processing,5310 Main St Suite 912,Boston,MA,02101
715,Partner Services 715,Banking Infrastructure,2637 Main St Suite 596,Los Angeles,CA,90001
716,Partner Services 716,Marketing Platform,6110 Main St Suite 745,Boston,MA,02101
717,Partner Services 717,Payment Processing,884 Main St Suite 516,Los Angeles,CA,90001
718,Partner Services 718,Technology Services,1665 Main St Suite 301,New York,NY,10001
719,Partner Services 719,Data Provider,7811 Main St Suite 663,Miami,FL,33101
720,Partner Services 720,Banking Infrastructure,2217 Main St Suite 455,San Francisco,CA,94102
721,Partner Services 721,Marketing Platform,8537 Main St Suite 597,Boston,MA,02101
722,Partner Services 722,Data Provider,9117 Main St Suite 585,Chicago,IL,60601
723,Partner Services 723,Banking Infrastructure,1006 Main St Suite 980,San Francisco,CA,94102
724,Partner Services 724,Compliance Services,5904 Main St Suite 907,Denver,CO,80201
725,Partner Services 725,Marketing Platform,2939 Main St Suite 297,Seattle,WA,98101
726,Partner Services 726,Security Services,3257 Main St Suite 809,Denver,CO,80201
727,Partner Services 727,Payment Processing,8260 Main St Suite 477,Austin,TX,78701
728,Partner Services 728,Technology Services,1007 Main St Suite 379,Chicago,IL,60601
729,Partner Services 729,Technology Services,9714 Main St Suite 807,Austin,TX,78701
730,Partner Services 730,Technology Services,6005 Main St Suite 168,Seattle,WA,98101
731,Partner Services 731,Payment Processing,5669 Main St Suite 790,Los Angeles,CA,90001
732,Partner Services 732,Data Provider,4593 Main St Suite 537,Atlanta,GA,30301
733,Partner Services 733,Compliance Services,6669 Main St Suite 894,Austin,TX,78701
734,Partner Services 734,Technology Services,1602 Main St Suite 521,Austin,TX,78701
735,Partner Services 735,Payment Processing,1450 Main St Suite 639,Austin,TX,78701
736,Partner Services 736,Security Services,3932 Main St Suite 874,Chicago,IL,60601
737,Partner Services 737,Compliance Services,4118 Main St Suite 264,Los Angeles,CA,90001
738,Partner Services 738,Compliance Services,7905 Main St Suite 356,New York,NY,10001
739,Partner Services 739,Security Services,4563 Main St Suite 980,Seattle,WA,98101
740,Partner Services 740,Security Services,8586 Main St Suite 993,San Francisco,CA,94102
741,Partner Services 741,Banking Infrastructure,3049 Main St Suite 941,Los Angeles,CA,90001
742,Partner Services 742,Data Provider,9609 Main St Suite 632,Austin,TX,78701
743,Partner Services 743,Security Services,8261 Main St Suite 803,San Francisco,CA,94102
744,Partner Services 744,Data Provider,7514 Main St Suite 610,Seattle,WA,98101
745,Partner Services 745,Compliance Services,5686 Main St Suite 188,Seattle,WA,98101
746,Partner Services 746,Payment Processing,3269 Main St Suite 452,Seattle,WA,98101
747,Partner Services 747,Compliance Services,1257 Main St Suite 387,San Francisco,CA,94102
748,Partner Services 748,Data Provider,2967 Main St Suite 901,New York,NY,10001
749,Partner Services 749,Technology Services,179 Main St Suite 231,Boston,MA,02101
750,Partner Services 750,Payment Processing,6329 Main St Suite 848,Los Angeles,CA,90001
751,Partner Services 751,Marketing Platform,7221 Main St Suite 431,Los Angeles,CA,90001
752,Partner Services 752,Technology Services,3660 Main St Suite 171,Chicago,IL,60601
753,Partner Services 753,Data Provider,7240 Main St Suite 133,New York,NY,10001
754,Partner Services 754,Technology Services,4359 Main St Suite 347,Los Angeles,CA,90001
755,Partner Services 755,Payment Processing,1925 Main St Suite 587,Los Angeles,CA,90001
756,Partner Services 756,Security Services,4351 Main St Suite 286,Chicago,IL,60601
757,Partner Services 757,Banking Infrastructure,134 Main St Suite 585,Atlanta,GA,30301
758,Partner Services 758,Compliance Services,647 Main St Suite 628,Austin,TX,78701
759,Partner Services 759,Banking Infrastructure,2549 Main St Suite 844,Austin,TX,78701
760,Partner Services 760,Payment Processing,3892 Main St Suite 346,Austin,TX,78701
761,Partner Services 761,Security Services,7438 Main St Suite 100,Boston,MA,02101
762,Partner Services 762,Payment Processing,408 Main St Suite 890,Seattle,WA,98101
763,Partner Services 763,Data Provider,4186 Main St Suite 662,Los Angeles,CA,90001
764,Partner Services 764,Marketing Platform,6947 Main St Suite 481,Boston,MA,02101
765,Partner Services 765,Security Services,9130 Main St Suite 498,Austin,TX,78701
766,Partner Services 766,Compliance Services,5219 Main St Suite 734,Miami,FL,33101
767,Partner Services 767,Technology Services,3632 Main St Suite 251,New York,NY,10001
768,Partner Services 768,Marketing Platform,7023 Main St Suite 850,New York,NY,10001
769,Partner Services 769,Security Services,7509 Main St Suite 467,San Francisco,CA,94102
770,Partner Services 770,Payment Processing,8018 Main St Suite 253,Boston,MA,02101
771,Partner Services 771,Compliance Services,5868 Main St Suite 260,Denver,CO,80201
772,Partner Services 772,Compliance Services,4508 Main St Suite 270,Denver,CO,80201
773,Partner Services 773,Security Services,4293 Main St Suite 589,New York,NY,10001
774,Partner Services 774,Payment Processing,4316 Main St Suite 310,Seattle,WA,98101
775,Partner Services 775,Compliance Services,206 Main St Suite 880,Los Angeles,CA,90001
776,Partner Services 776,Marketing Platform,3656 Main St Suite 876,San Francisco,CA,94102
777,Partner Services 777,Banking Infrastructure,5004 Main St Suite 353,Austin,TX,78701
778,Partner Services 778,Marketing Platform,341 Main St Suite 332,Miami,FL,33101
779,Partner Services 779,Data Provider,283 Main St Suite 657,New York,NY,10001
780,Partner Services 780,Banking Infrastructure,1901 Main St Suite 319,Seattle,WA,98101
781,Partner Services 781,Security Services,4794 Main St Suite 616,Austin,TX,78701
782,Partner Services 782,Security Services,6878 Main St Suite 320,Los Angeles,CA,90001
783,Partner Services 783,Compliance Services,9198 Main St Suite 998,Austin,TX,78701
784,Partner Services 784,Technology Services,3291 Main St Suite 711,Seattle,WA,98101
785,Partner Services 785,Marketing Platform,1966 Main St Suite 337,Chicago,IL,60601
786,Partner Services 786,Technology Services,9859 Main St Suite 424,Boston,MA,02101
787,Partner Services 787,Data Provider,2753 Main St Suite 796,San Francisco,CA,94102
788,Partner Services 788,Payment Processing,6878 Main St Suite 544,Miami,FL,33101
789,Partner Services 789,Data Provider,9962 Main St Suite 500,Seattle,WA,98101
790,Partner Services 790,Payment Processing,8952 Main St Suite 781,Boston,MA,02101
791,Partner Services 791,Compliance Services,8619 Main St Suite 505,San Francisco,CA,94102
792,Partner Services 792,Compliance Services,6404 Main St Suite 414,Boston,MA,02101
793,Partner Services 793,Data Provider,3753 Main St Suite 377,Miami,FL,33101
794,Partner Services 794,Security Services,9146 Main St Suite 302,Miami,FL,33101
795,Partner Services 795,Data Provider,332 Main St Suite 946,Denver,CO,80201
796,Partner Services 796,Technology Services,6816 Main St Suite 279,Denver,CO,80201
797,Partner Services 797,Banking Infrastructure,3833 Main St Suite 941,Atlanta,GA,30301
798,Partner Services 798,Payment Processing,6633 Main St Suite 513,Denver,CO,80201
799,Partner Services 799,Marketing Platform,2623 Main St Suite 991,Boston,MA,02101
800,Partner Services 800,Compliance Services,9153 Main St Suite 229,Chicago,IL,60601
801,Partner Services 801,Data Provider,6545 Main St Suite 451,San Francisco,CA,94102
802,Partner Services 802,Data Provider,5195 Main St Suite 786,Chicago,IL,60601
803,Partner Services 803,Banking Infrastructure,6755 Main St Suite 736,San Francisco,CA,94102
804,Partner Services 804,Payment Processing,4179 Main St Suite 751,Boston,MA,02101
805,Partner Services 805,Security Services,3473 Main St Suite 234,Atlanta,GA,30301
806,Partner Services 806,Data Provider,7814 Main St Suite 382,San Francisco,CA,94102
807,Partner Services 807,Marketing Platform,7986 Main St Suite 403,Chicago,IL,60601
808,Partner Services 808,Banking Infrastructure,626 Main St Suite 288,Miami,FL,33101
809,Partner Services 809,Banking Infrastructure,4770 Main St Suite 966,New York,NY,10001
810,Partner Services 810,Compliance Services,1378 Main St Suite 141,Denver,CO,80201
811,Partner Services 811,Compliance Services,619 Main St Suite 611,Boston,MA,02101
812,Partner Services 812,Data Provider,7012 Main St Suite 258,Atlanta,GA,30301
813,Partner Services 813,Technology Services,8503 Main St Suite 639,Miami,FL,33101
814,Partner Services 814,Payment Processing,4267 Main St Suite 208,Chicago,IL,60601
815,Partner Services 815,Payment Processing,7289 Main St Suite 352,Seattle,WA,98101
816,Partner Services 816,Banking Infrastructure,1918 Main St Suite 466,Denver,CO,80201
817,Partner Services 817,Technology Services,4984 Main St Suite 984,San Francisco,CA,94102
818,Partner Services 818,Data Provider,4891 Main St Suite 552,Denver,CO,80201
819,Partner Services 819,Data Provider,1676 Main St Suite 313,Miami,FL,33101
820,Partner Services 820,Marketing Platform,5284 Main St Suite 193,Boston,MA,02101
821,Partner Services 821,Compliance Services,501 Main St Suite 118,Atlanta,GA,30301
822,Partner Services 822,Technology Services,5717 Main St Suite 378,New York,NY,10001
823,Partner Services 823,Banking Infrastructure,8832 Main St Suite 256,Austin,TX,78701
824,Partner Services 824,Security Services,5537 Main St Suite 288,Atlanta,GA,30301
825,Partner Services 825,Marketing Platform,7053 Main St Suite 487,Seattle,WA,98101
826,Partner Services 826,Banking Infrastructure,5585 Main St Suite 353,Denver,CO,80201
827,Partner Services 827,Payment Processing,3864 Main St Suite 684,Miami,FL,33101
828,Partner Services 828,Compliance Services,1542 Main St Suite 636,Austin,TX,78701
829,Partner Services 829,Marketing Platform,4275 Main St Suite 600,Seattle,WA,98101
830,Partner Services 830,Banking Infrastructure,1865 Main St Suite 310,Los Angeles,CA,90001
831,Partner Services 831,Compliance Services,5105 Main St Suite 422,Denver,CO,80201
832,Partner Services 832,Security Services,9329 Main St Suite 944,Chicago,IL,60601
833,Partner Services 833,Payment Processing,703 Main St Suite 855,Denver,CO,80201
834,Partner Services 834,Data Provider,616 Main St Suite 638,Seattle,WA,98101
835,Partner Services 835,Compliance Services,7065 Main St Suite 989,Atlanta,GA,30301
836,Partner Services 836,Banking Infrastructure,9076 Main St Suite 951,Seattle,WA,98101
837,Partner Services 837,Data Provider,914 Main St Suite 992,Atlanta,GA,30301
838,Partner Services 838,Security Services,1173 Main St Suite 598,Seattle,WA,98101
839,Partner Services 839,Compliance Services,5177 Main St Suite 526,Austin,TX,78701
840,Partner Services 840,Banking Infrastructure,1572 Main St Suite 508,Boston,MA,02101
841,Partner Services 841,Compliance Services,9315 Main St Suite 665,New York,NY,10001
842,Partner Services 842,Payment Processing,1519 Main St Suite 250,Atlanta,GA,30301
843,Partner Services 843,Compliance Services,9820 Main St Suite 317,Miami,FL,33101
844,Partner Services 844,Technology Services,7915 Main St Suite 642,Chicago,IL,60601
845,Partner Services 845,Banking Infrastructure,1132 Main St Suite 260,Seattle,WA,98101
846,Partner Services 846,Security Services,5307 Main St Suite 645,New York,NY,10001
847,Partner Services 847,Compliance Services,9981 Main St Suite 651,Atlanta,GA,30301
848,Partner Services 848,Payment Processing,6003 Main St Suite 100,Boston,MA,02101
849,Partner Services 849,Security Services,2254 Main St Suite 996,Denver,CO,80201
850,Partner Services 850,Banking Infrastructure,7169 Main St Suite 778,Chicago,IL,60601
851,Partner Services 851,Security Services,7481 Main St Suite 859,Miami,FL,33101
852,Partner Services 852,Data Provider,6662 Main St Suite 285,Boston,MA,02101
853,Partner Services 853,Data Provider,2016 Main St Suite 787,Austin,TX,78701
854,Partner Services 854,Marketing Platform,8191 Main St Suite 214,Chicago,IL,60601
855,Partner Services 855,Compliance Services,1977 Main St Suite 666,Seattle,WA,98101
856,Partner Services 856,Marketing Platform,9432 Main St Suite 624,Boston,MA,02101
857,Partner Services 857,Banking Infrastructure,4681 Main St Suite 895,Los Angeles,CA,90001
858,Partner Services 858,Banking Infrastructure,8800 Main St Suite 165,Chicago,IL,60601
859,Partner Services 859,Banking Infrastructure,1626 Main St Suite 799,Denver,CO,80201
860,Partner Services 860,Security Services,3352 Main St Suite 625,Boston,MA,02101
861,Partner Services 861,Payment Processing,2058 Main St Suite 221,Los Angeles,CA,90001
862,Partner Services 862,Payment Processing,8535 Main St Suite 338,Chicago,IL,60601
863,Partner Services 863,Payment Processing,2341 Main St Suite 886,Miami,FL,33101
864,Partner Services 864,Security Services,8863 Main St Suite 494,Miami,FL,33101
865,Partner Services 865,Compliance Services,3457 Main St Suite 345,Austin,TX,78701
866,Partner Services 866,Security Services,4353 Main St Suite 207,Boston,MA,02101
867,Partner Services 867,Data Provider,9723 Main St Suite 589,Denver,CO,80201
868,Partner Services 868,Security Services,8457 Main St Suite 643,Atlanta,GA,30301
869,Partner Services 869,Banking Infrastructure,2010 Main St Suite 653,Chicago,IL,60601
870,Partner Services 870,Technology Services,6894 Main St Suite 959,Miami,FL,33101
871,Partner Services 871,Security Services,6840 Main St Suite 986,New York,NY,10001
872,Partner Services 872,Marketing Platform,5260 Main St Suite 657,Chicago,IL,60601
873,Partner Services 873,Payment Processing,3783 Main St Suite 354,New York,NY,10001
874,Partner Services 874,Marketing Platform,2221 Main St Suite 655,Boston,MA,02101
875,Partner Services 875,Marketing Platform,6305 Main St Suite 910,New York,NY,10001
876,Partner Services 876,Data Provider,9900 Main St Suite 858,New York,NY,10001
877,Partner Services 877,Payment Processing,3187 Main St Suite 284,Los Angeles,CA,90001
878,Partner Services 878,Data Provider,6384 Main St Suite 530,San Francisco,CA,94102
879,Partner Services 879,Data Provider,2745 Main St Suite 593,Chicago,IL,60601
880,Partner Services 880,Compliance Services,7227 Main St Suite 302,Atlanta,GA,30301
881,Partner Services 881,Marketing Platform,9772 Main St Suite 983,New York,NY,10001
882,Partner Services 882,Banking Infrastructure,1400 Main St Suite 519,New York,NY,10001
883,Partner Services 883,Compliance Services,6370 Main St Suite 128,Chicago,IL,60601
884,Partner Services 884,Compliance Services,8696 Main St Suite 771,Miami,FL,33101
885,Partner Services 885,Marketing Platform,476 Main St Suite 116,New York,NY,10001
886,Partner Services 886,Banking Infrastructure,5179 Main St Suite 900,Denver,CO,80201
887,Partner Services 887,Payment Processing,2667 Main St Suite 868,Atlanta,GA,30301
888,Partner Services 888,Technology Services,5137 Main St Suite 407,Austin,TX,78701
889,Partner Services 889,Marketing Platform,4104 Main St Suite 505,Austin,TX,78701
890,Partner Services 890,Technology Services,4926 Main St Suite 585,Denver,CO,80201
891,Partner Services 891,Security Services,863 Main St Suite 807,Miami,FL,33101
892,Partner Services 892,Technology Services,331 Main St Suite 569,Denver,CO,80201
893,Partner Services 893,Compliance Services,6079 Main St Suite 506,Austin,TX,78701
894,Partner Services 894,Security Services,1940 Main St Suite 626,Los Angeles,CA,90001
895,Partner Services 895,Marketing Platform,7646 Main St Suite 768,San Francisco,CA,94102
896,Partner Services 896,Technology Services,1004 Main St Suite 558,Denver,CO,80201
897,Partner Services 897,Technology Services,136 Main St Suite 416,Atlanta,GA,30301
898,Partner Services 898,Data Provider,5904 Main St Suite 462,Chicago,IL,60601
899,Partner Services 899,Banking Infrastructure,6818 Main St Suite 517,Denver,CO,80201
900,Partner Services 900,Technology Services,5979 Main St Suite 962,San Francisco,CA,94102
901,Partner Services 901,Payment Processing,3724 Main St Suite 758,Austin,TX,78701
902,Partner Services 902,Marketing Platform,6255 Main St Suite 600,Boston,MA,02101
903,Partner Services 903,Data Provider,6447 Main St Suite 676,Austin,TX,78701
904,Partner Services 904,Security Services,8689 Main St Suite 282,Chicago,IL,60601
905,Partner Services 905,Technology Services,4168 Main St Suite 860,Seattle,WA,98101
906,Partner Services 906,Compliance Services,887 Main St Suite 364,Seattle,WA,98101
907,Partner Services 907,Technology Services,9347 Main St Suite 375,Chicago,IL,60601
908,Partner Services 908,Data Provider,5814 Main St Suite 407,New York,NY,10001
909,Partner Services 909,Marketing Platform,4587 Main St Suite 177,New York,NY,10001
910,Partner Services 910,Payment Processing,9004 Main St Suite 686,San Francisco,CA,94102
911,Partner Services 911,Security Services,5747 Main St Suite 806,Denver,CO,80201
912,Partner Services 912,Data Provider,4945 Main St Suite 274,Denver,CO,80201
913,Partner Services 913,Payment Processing,9579 Main St Suite 119,Boston,MA,02101
914,Partner Services 914,Data Provider,7866 Main St Suite 261,Miami,FL,33101
915,Partner Services 915,Security Services,1041 Main St Suite 926,Seattle,WA,98101
916,Partner Services 916,Marketing Platform,3891 Main St Suite 741,Seattle,WA,98101
917,Partner Services 917,Banking Infrastructure,7534 Main St Suite 256,Chicago,IL,60601
918,Partner Services 918,Payment Processing,658 Main St Suite 517,Austin,TX,78701
919,Partner Services 919,Data Provider,7881 Main St Suite 368,Denver,CO,80201
920,Partner Services 920,Payment Processing,2924 Main St Suite 402,Denver,CO,80201
921,Partner Services 921,Payment Processing,4595 Main St Suite 179,Austin,TX,78701
922,Partner Services 922,Marketing Platform,3894 Main St Suite 984,Los Angeles,CA,90001
923,Partner Services 923,Data Provider,3762 Main St Suite 653,Los Angeles,CA,90001
924,Partner Services 924,Compliance Services,2766 Main St Suite 214,Chicago,IL,60601
925,Partner Services 925,Payment Processing,1669 Main St Suite 975,Seattle,WA,98101
926,Partner Services 926,Banking Infrastructure,4413 Main St Suite 385,Austin,TX,78701
927,Partner Services 927,Technology Services,5515 Main St Suite 550,Seattle,WA,98101
928,Partner Services 928,Payment Processing,7810 Main St Suite 188,Seattle,WA,98101
929,Partner Services 929,Security Services,6307 Main St Suite 377,San Francisco,CA,94102
930,Partner Services 930,Banking Infrastructure,4718 Main St Suite 398,Austin,TX,78701
931,Partner Services 931,Payment Processing,5940 Main St Suite 165,Boston,MA,02101
932,Partner Services 932,Data Provider,5500 Main St Suite 378,San Francisco,CA,94102
933,Partner Services 933,Security Services,6372 Main St Suite 244,Seattle,WA,98101
934,Partner Services 934,Banking Infrastructure,224 Main St Suite 749,Miami,FL,33101
935,Partner Services 935,Banking Infrastructure,1162 Main St Suite 283,Austin,TX,78701
936,Partner Services 936,Compliance Services,7310 Main St Suite 912,New York,NY,10001
937,Partner Services 937,Security Services,3948 Main St Suite 686,Denver,CO,80201
938,Partner Services 938,Data Provider,7883 Main St Suite 306,Atlanta,GA,30301
939,Partner Services 939,Payment Processing,3165 Main St Suite 202,Miami,FL,33101
940,Partner Services 940,Security Services,1361 Main St Suite 170,Los Angeles,CA,90001
941,Partner Services 941,Payment Processing,3283 Main St Suite 574,New York,NY,10001
942,Partner Services 942,Payment Processing,696 Main St Suite 581,Denver,CO,80201
943,Partner Services 943,Payment Processing,5700 Main St Suite 775,Chicago,IL,60601
944,Partner Services 944,Security Services,110 Main St Suite 613,San Francisco,CA,94102
945,Partner Services 945,Payment Processing,3738 Main St Suite 518,Chicago,IL,60601
946,Partner Services 946,Banking Infrastructure,9096 Main St Suite 177,Boston,MA,02101
947,Partner Services 947,Data Provider,5854 Main St Suite 969,Chicago,IL,60601
948,Partner Services 948,Data Provider,8371 Main St Suite 252,Chicago,IL,60601
949,Partner Services 949,Technology Services,2759 Main St Suite 981,Miami,FL,33101
950,Partner Services 950,Technology Services,9243 Main St Suite 687,Denver,CO,80201
951,Partner Services 951,Compliance Services,9409 Main St Suite 962,Austin,TX,78701
952,Partner Services 952,Technology Services,7831 Main St Suite 373,Chicago,IL,60601
953,Partner Services 953,Banking Infrastructure,6166 Main St Suite 328,Miami,FL,33101
954,Partner Services 954,Compliance Services,4276 Main St Suite 953,San Francisco,CA,94102
955,Partner Services 955,Compliance Services,3215 Main St Suite 390,Chicago,IL,60601
956,Partner Services 956,Banking Infrastructure,195 Main St Suite 603,New York,NY,10001
957,Partner Services 957,Marketing Platform,1215 Main St Suite 289,Chicago,IL,60601
958,Partner Services 958,Data Provider,5032 Main St Suite 531,New York,NY,10001
959,Partner Services 959,Payment Processing,9946 Main St Suite 163,Denver,CO,80201
960,Partner Services 960,Technology Services,6919 Main St Suite 224,New York,NY,10001
961,Partner Services 961,Data Provider,8830 Main St Suite 716,Los Angeles,CA,90001
962,Partner Services 962,Banking Infrastructure,8533 Main St Suite 783,Atlanta,GA,30301
963,Partner Services 963,Compliance Services,1187 Main St Suite 387,Boston,MA,02101
964,Partner Services 964,Technology Services,2308 Main St Suite 581,San Francisco,CA,94102
965,Partner Services 965,Security Services,8260 Main St Suite 775,Los Angeles,CA,90001
966,Partner Services 966,Payment Processing,6225 Main St Suite 910,Denver,CO,80201
967,Partner Services 967,Marketing Platform,2985 Main St Suite 412,Los Angeles,CA,90001
968,Partner Services 968,Payment Processing,808 Main St Suite 837,Los Angeles,CA,90001
969,Partner Services 969,Payment Processing,7170 Main St Suite 921,Chicago,IL,60601
970,Partner Services 970,Data Provider,3649 Main St Suite 445,Boston,MA,02101
971,Partner Services 971,Compliance Services,3140 Main St Suite 582,Seattle,WA,98101
972,Partner Services 972,Data Provider,3063 Main St Suite 719,Austin,TX,78701
973,Partner Services 973,Marketing Platform,7581 Main St Suite 674,Atlanta,GA,30301
974,Partner Services 974,Security Services,2345 Main St Suite 670,Seattle,WA,98101
975,Partner Services 975,Marketing Platform,5665 Main St Suite 449,San Francisco,CA,94102
976,Partner Services 976,Compliance Services,3709 Main St Suite 472,Los Angeles,CA,90001
977,Partner Services 977,Technology Services,2601 Main St Suite 972,Atlanta,GA,30301
978,Partner Services 978,Compliance Services,1375 Main St Suite 882,Los Angeles,CA,90001
979,Partner Services 979,Compliance Services,3675 Main St Suite 515,New York,NY,10001
980,Partner Services 980,Security Services,7332 Main St Suite 581,Austin,TX,78701
981,Partner Services 981,Compliance Services,2543 Main St Suite 535,Austin,TX,78701
982,Partner Services 982,Security Services,5628 Main St Suite 646,Atlanta,GA,30301
983,Partner Services 983,Data Provider,1881 Main St Suite 803,Los Angeles,CA,90001
984,Partner Services 984,Security Services,8560 Main St Suite 187,Austin,TX,78701
985,Partner Services 985,Data Provider,8798 Main St Suite 636,Boston,MA,02101
986,Partner Services 986,Banking Infrastructure,475 Main St Suite 321,Atlanta,GA,30301
987,Partner Services 987,Data Provider,9525 Main St Suite 944,Boston,MA,02101
988,Partner Services 988,Data Provider,9140 Main St Suite 493,Denver,CO,80201
989,Partner Services 989,Marketing Platform,7955 Main St Suite 726,Atlanta,GA,30301
990,Partner Services 990,Compliance Services,2821 Main St Suite 722,Seattle,WA,98101
991,Partner Services 991,Security Services,3432 Main St Suite 850,Los Angeles,CA,90001
992,Partner Services 992,Banking Infrastructure,8369 Main St Suite 859,Miami,FL,33101
993,Partner Services 993,Marketing Platform,2680 Main St Suite 438,San Francisco,CA,94102
994,Partner Services 994,Banking Infrastructure,775 Main St Suite 958,Los Angeles,CA,90001
995,Partner Services 995,Banking Infrastructure,5830 Main St Suite 488,Chicago,IL,60601
996,Partner Services 996,Security Services,8159 Main St Suite 127,Boston,MA,02101
997,Partner Services 997,Banking Infrastructure,6525 Main St Suite 550,San Francisco,CA,94102
998,Partner Services 998,Banking Infrastructure,706 Main St Suite 958,Los Angeles,CA,90001
999,Partner Services 999,Security Services,2596 Main St Suite 724,Atlanta,GA,30301
1000,Partner Services 1000,Banking Infrastructure,1603 Main St Suite 136,San Francisco,CA,94102
